{
  "type": "FeatureCollection",
  "features": [
    {
      "type": "Feature",
      "properties": {
        "norad_id": 41866,
        "name": "GOES 16",
        "group": "weather",
        "lat": -0.014438864261992871,
        "lon": 40.74383388326497,
        "alt_km": 35798.06868422065,
        "timestamp": "2025-12-03T04:52:29.283947+00:00",
        "meta_object_name": "GOES 16",
        "meta_object_id": "2016-071A",
        "meta_epoch": "2025-12-02T16:42:34.602048",
        "meta_mean_motion": 1.00270598,
        "meta_eccentricity": 0.000338,
        "meta_inclination": 0.057,
        "meta_ra_of_asc_node": 107.5748,
        "meta_arg_of_pericenter": 148.8132,
        "meta_mean_anomaly": 321.3841,
        "meta_ephemeris_type": 0,
        "meta_classification_type": "U",
        "meta_norad_cat_id": 41866,
        "meta_element_set_no": 999,
        "meta_rev_at_epoch": 3313,
        "meta_bstar": 0,
        "meta_mean_motion_dot": -7.1e-07,
        "meta_mean_motion_ddot": 0,
        "tle_line1": "1 41866U 16071A   25336.69623382 -.00000071  00000+0  00000+0 0  9995",
        "tle_line2": "2 41866   0.0570 107.5748 0003380 148.8132 321.3841  1.00270598 33136"
      },
      "geometry": {
        "type": "Point",
        "coordinates": [
          40.74383388326497,
          -0.014438864261992871
        ]
      }
    },
    {
      "type": "Feature",
      "properties": {
        "norad_id": 41882,
        "name": "FENGYUN 4A",
        "group": "weather",
        "lat": -0.23186019129003435,
        "lon": -90.84570635046302,
        "alt_km": 35769.24902946198,
        "timestamp": "2025-12-03T04:52:29.283979+00:00",
        "meta_object_name": "FENGYUN 4A",
        "meta_object_id": "2016-077A",
        "meta_epoch": "2025-12-02T16:19:38.754624",
        "meta_mean_motion": 1.00278613,
        "meta_eccentricity": 0.0005024,
        "meta_inclination": 1.8216,
        "meta_ra_of_asc_node": 82.4893,
        "meta_arg_of_pericenter": 141.3975,
        "meta_mean_anomaly": 216.5145,
        "meta_ephemeris_type": 0,
        "meta_classification_type": "U",
        "meta_norad_cat_id": 41882,
        "meta_element_set_no": 999,
        "meta_rev_at_epoch": 3295,
        "meta_bstar": 0,
        "meta_mean_motion_dot": -3.37e-06,
        "meta_mean_motion_ddot": 0,
        "tle_line1": "1 41882U 16077A   25336.68030966 -.00000337  00000+0  00000+0 0  9993",
        "tle_line2": "2 41882   1.8216  82.4893 0005024 141.3975 216.5145  1.00278613 32959"
      },
      "geometry": {
        "type": "Point",
        "coordinates": [
          -90.84570635046302,
          -0.23186019129003435
        ]
      }
    },
    {
      "type": "Feature",
      "properties": {
        "norad_id": 41884,
        "name": "CYGFM05",
        "group": "weather",
        "lat": 32.222495095903085,
        "lon": 173.84803666967338,
        "alt_km": 413.30537561093115,
        "timestamp": "2025-12-03T04:52:29.283993+00:00",
        "meta_object_name": "CYGFM05",
        "meta_object_id": "2016-078A",
        "meta_epoch": "2025-12-02T19:17:16.771776",
        "meta_mean_motion": 15.47070837,
        "meta_eccentricity": 0.0009441,
        "meta_inclination": 34.9579,
        "meta_ra_of_asc_node": 112.0079,
        "meta_arg_of_pericenter": 87.4648,
        "meta_mean_anomaly": 272.7154,
        "meta_ephemeris_type": 0,
        "meta_classification_type": "U",
        "meta_norad_cat_id": 41884,
        "meta_element_set_no": 999,
        "meta_rev_at_epoch": 49822,
        "meta_bstar": 0.00046464,
        "meta_mean_motion_dot": 0.00024302,
        "meta_mean_motion_ddot": 0,
        "tle_line1": "1 41884U 16078A   25336.80366634  .00024302  00000+0  46464-3 0  9999",
        "tle_line2": "2 41884  34.9579 112.0079 0009441  87.4648 272.7154 15.47070837498224"
      },
      "geometry": {
        "type": "Point",
        "coordinates": [
          173.84803666967338,
          32.222495095903085
        ]
      }
    },
    {
      "type": "Feature",
      "properties": {
        "norad_id": 41885,
        "name": "CYGFM04",
        "group": "weather",
        "lat": -19.392487646250668,
        "lon": -65.26602968089018,
        "alt_km": 418.6985294782544,
        "timestamp": "2025-12-03T04:52:29.284005+00:00",
        "meta_object_name": "CYGFM04",
        "meta_object_id": "2016-078B",
        "meta_epoch": "2025-12-02T17:07:43.442400",
        "meta_mean_motion": 15.49715987,
        "meta_eccentricity": 0.0008462,
        "meta_inclination": 34.9339,
        "meta_ra_of_asc_node": 87.6561,
        "meta_arg_of_pericenter": 117.1604,
        "meta_mean_anomaly": 242.9982,
        "meta_ephemeris_type": 0,
        "meta_classification_type": "U",
        "meta_norad_cat_id": 41885,
        "meta_element_set_no": 999,
        "meta_rev_at_epoch": 49838,
        "meta_bstar": 0.0013564,
        "meta_mean_motion_dot": 0.00078467,
        "meta_mean_motion_ddot": 0,
        "tle_line1": "1 41885U 16078B   25336.71369725  .00078467  00000+0  13564-2 0  9999",
        "tle_line2": "2 41885  34.9339  87.6561 0008462 117.1604 242.9982 15.49715987498386"
      },
      "geometry": {
        "type": "Point",
        "coordinates": [
          -65.26602968089018,
          -19.392487646250668
        ]
      }
    },
    {
      "type": "Feature",
      "properties": {
        "norad_id": 41886,
        "name": "CYGFM02",
        "group": "weather",
        "lat": -0.9405330918270055,
        "lon": -95.75599263330535,
        "alt_km": 409.19065362251877,
        "timestamp": "2025-12-03T04:52:29.284017+00:00",
        "meta_object_name": "CYGFM02",
        "meta_object_id": "2016-078C",
        "meta_epoch": "2025-12-02T17:17:02.334624",
        "meta_mean_motion": 15.51057984,
        "meta_eccentricity": 0.0010167,
        "meta_inclination": 34.943,
        "meta_ra_of_asc_node": 86.0684,
        "meta_arg_of_pericenter": 116.2207,
        "meta_mean_anomaly": 243.9561,
        "meta_ephemeris_type": 0,
        "meta_classification_type": "U",
        "meta_norad_cat_id": 41886,
        "meta_element_set_no": 999,
        "meta_rev_at_epoch": 49851,
        "meta_bstar": 0.00048914,
        "meta_mean_motion_dot": 0.00029486,
        "meta_mean_motion_ddot": 0,
        "tle_line1": "1 41886U 16078C   25336.72016591  .00029486  00000+0  48914-3 0  9996",
        "tle_line2": "2 41886  34.9430  86.0684 0010167 116.2207 243.9561 15.51057984498510"
      },
      "geometry": {
        "type": "Point",
        "coordinates": [
          -95.75599263330535,
          -0.9405330918270055
        ]
      }
    },
    {
      "type": "Feature",
      "properties": {
        "norad_id": 41887,
        "name": "CYGFM01",
        "group": "weather",
        "lat": 34.86107650305682,
        "lon": -154.33601735877636,
        "alt_km": 411.09499512623734,
        "timestamp": "2025-12-03T04:52:29.284029+00:00",
        "meta_object_name": "CYGFM01",
        "meta_object_id": "2016-078D",
        "meta_epoch": "2025-12-02T19:11:10.485024",
        "meta_mean_motion": 15.4763314,
        "meta_eccentricity": 0.0009079,
        "meta_inclination": 34.9409,
        "meta_ra_of_asc_node": 114.4547,
        "meta_arg_of_pericenter": 78.5673,
        "meta_mean_anomaly": 281.6068,
        "meta_ephemeris_type": 0,
        "meta_classification_type": "U",
        "meta_norad_cat_id": 41887,
        "meta_element_set_no": 999,
        "meta_rev_at_epoch": 49816,
        "meta_bstar": 0.00046309,
        "meta_mean_motion_dot": 0.000247,
        "meta_mean_motion_ddot": 0,
        "tle_line1": "1 41887U 16078D   25336.79942691  .00024700  00000+0  46309-3 0  9993",
        "tle_line2": "2 41887  34.9409 114.4547 0009079  78.5673 281.6068 15.47633140498169"
      },
      "geometry": {
        "type": "Point",
        "coordinates": [
          -154.33601735877636,
          34.86107650305682
        ]
      }
    },
    {
      "type": "Feature",
      "properties": {
        "norad_id": 41888,
        "name": "CYGFM08",
        "group": "weather",
        "lat": 34.25974574163047,
        "lon": -162.35958788455247,
        "alt_km": 406.65235965113334,
        "timestamp": "2025-12-03T04:52:29.284040+00:00",
        "meta_object_name": "CYGFM08",
        "meta_object_id": "2016-078E",
        "meta_epoch": "2025-12-02T17:36:54.315072",
        "meta_mean_motion": 15.48804218,
        "meta_eccentricity": 0.0010648,
        "meta_inclination": 34.9446,
        "meta_ra_of_asc_node": 97.9884,
        "meta_arg_of_pericenter": 104.4395,
        "meta_mean_anomaly": 255.7509,
        "meta_ephemeris_type": 0,
        "meta_classification_type": "U",
        "meta_norad_cat_id": 41888,
        "meta_element_set_no": 999,
        "meta_rev_at_epoch": 49838,
        "meta_bstar": 0.00048806,
        "meta_mean_motion_dot": 0.00027152,
        "meta_mean_motion_ddot": 0,
        "tle_line1": "1 41888U 16078E   25336.73396198  .00027152  00000+0  48806-3 0  9991",
        "tle_line2": "2 41888  34.9446  97.9884 0010648 104.4395 255.7509 15.48804218498387"
      },
      "geometry": {
        "type": "Point",
        "coordinates": [
          -162.35958788455247,
          34.25974574163047
        ]
      }
    }
  ]
}